[{"OBJECT_NAME":"STARLINK-30384","OBJECT_ID":"2023-134D","EPOCH":"2026-03-09T22:00:01.999584","MEAN_MOTION":15.17829384,"ECCENTRICITY":0.00022152,"INCLINATION":43,"RA_OF_ASC_NODE":195.5861,"ARG_OF_PERICENTER":278.8011,"MEAN_ANOMALY":78.3931,"EPHEMERIS_TYPE":0,"CLASSIFICATION_TYPE":"U","NORAD_CAT_ID":57774,"ELEMENT_SET_NO":999,"REV_AT_EPOCH":572,"BSTAR":0.0038674062,"MEAN_MOTION_DOT":0.0008037,"MEAN_MOTION_DDOT":0},{"OBJECT_NAME":"FLOCK 4H-12","OBJECT_ID":"2025-276BB","EPOCH":"2026-03-09T17:04:48.725184","MEAN_MOTION":15.1924028,"ECCENTRICITY":0.00012108,"INCLINATION":97.4257,"RA_OF_ASC_NODE":144.0272,"ARG_OF_PERICENTER":355.045,"MEAN_ANOMALY":5.0772,"EPHEMERIS_TYPE":0,"CLASSIFICATION_TYPE":"U","NORAD_CAT_ID":66715,"ELEMENT_SET_NO":999,"REV_AT_EPOCH":1563,"BSTAR":0.00034709281,"MEAN_MOTION_DOT":7.248e-5,"MEAN_MOTION_DDOT":0}]
